[Satellite]
VERSION=1.1
NAME=IRIDIUM 920 [-]
NICKNAME=IRIDIUM 920 [-]
TLE1=1 24871U 97034C   18020.94883411  .00000089  00000-0  22027-4 0  9998
TLE2=2 24871  86.3980 274.5707 0011478 354.5083   5.5988 14.39510032 77411
